BEIDOU-2 IGSO-2         
1 37256U 10068A   26116.87127000 -.00000222  00000+0  00000+0 0  9994
2 37256  47.6441 272.4653 0053237 211.5565 149.1985  1.00299784 56283
EUTELSAT KA-SAT 9A      
1 37258U 10069A   26116.70970005  .00000049  00000+0  00000+0 0  9996
2 37258   0.0611 354.1089 0004027 144.1294 340.9833  1.00268489 43491
HISPASAT 30W-5          
1 37264U 10070A   26116.84457655 -.00000227  00000+0  00000+0 0  9990
2 37264   0.0648  92.2919 0004578 328.4043  68.2020  1.00270772 52676
KOREASAT 6              
1 37265U 10070B   26116.87420788  .00000000  00000+0  00000+0 0  9999
2 37265   0.0154 113.3266 0002510 291.9615 284.1909  1.00269634 56250
ELEKTRO-L 1 (GOMS 2)    
1 37344U 11001A   26116.45605050 -.00000179  00000+0  00000+0 0  9991
2 37344   9.5720  55.0235 0004004  17.8262 215.7319  1.00159276 55964
FREGAT R/B              
1 37345U 11001B   26116.93868233 -.00000102  00000+0  00000+0 0  9995
2 37345  10.1460  42.8474 0151506  69.6096 107.8857  1.02799825 59877
BEIDOU-2 IGSO-3         
1 37384U 11013A   26114.73250720 -.00000201  00000+0  00000+0 0  9993
2 37384  62.3393  40.6572 0033701 188.3614 355.5484  1.00280536 55124
INTELSAT 28 (IS-28)     
1 37392U 11016A   26116.84422988 -.00000235  00000+0  00000+0 0  9993
2 37392   1.6753  83.2122 0004188 317.0091  86.8300  1.00270824 52778
YAHSAT 1A               
1 37393U 11016B   26116.93219427  .00000000  00000+0  00000+0 0  9995
2 37393   0.0171 226.1421 0003181 183.5139 193.3627  1.00270073 41890
SBIRS GEO-1 (USA 230)   
1 37481U 11019A   26116.50429322  .00000090  00000+0  00000+0 0  9995
2 37481   4.4238  53.1203 0002274 338.4498  56.2872  1.00272367 54887
TELSTAR 14R             
1 37602U 11021A   26116.48149979 -.00000292  00000+0  00000+0 0  9992
2 37602   0.0197 257.7355 0002277 130.3447 296.7265  1.00271318 55315
GSAT-8                  
1 37605U 11022A   26116.76572685  .00000075  00000+0  00000+0 0  9999
2 37605   2.0001  82.4175 0004743 227.2999 235.7789  1.00270458 52703
ST-2                    
1 37606U 11022B   26116.94608407 -.00000222  00000+0  00000+0 0  9997
2 37606   0.0320  98.8802 0001896 304.8458 239.8137  1.00271046 54766
ZHONGXING-10            
1 37677U 11026A   26116.93878096 -.00000199  00000+0  00000+0 0  9994
2 37677   0.9160  84.7117 0002803 319.2509 234.4731  1.00272608 54489
SES-3                   
1 37748U 11035A   26116.90142749 -.00000112  00000+0  00000+0 0  9994
2 37748   1.1958  83.5829 0003106 313.8586  38.9729  1.00271685 54078
KAZSAT-2                
1 37749U 11035B   26116.93895429 -.00000209  00000+0  00000+0 0  9995
2 37749   0.0390 279.8113 0001492 181.8226 177.8407  1.00270499 52888
BREEZE-M R/B            
1 37751U 11035D   26116.26349416 -.00000187  00000+0  00000+0 0  9999
2 37751   9.3291  34.5910 0771970  63.7913 119.1753  1.12713902 60796
