[{"OBJECT_NAME":"BEIDOU-2 IGSO-2","OBJECT_ID":"2010-068A","EPOCH":"2026-04-26T20:54:37.728000","MEAN_MOTION":1.00299784,"ECCENTRICITY":0.00532377,"INCLINATION":47.6441,"RA_OF_ASC_NODE":272.4653,"ARG_OF_PERICENTER":211.5565,"MEAN_ANOMALY":149.1985,"EPHEMERIS_TYPE":0,"CLASSIFICATION_TYPE":"U","NORAD_CAT_ID":37256,"ELEMENT_SET_NO":999,"REV_AT_EPOCH":5628,"BSTAR":0,"MEAN_MOTION_DOT":-2.22e-6,"MEAN_MOTION_DDOT":0},{"OBJECT_NAME":"EUTELSAT KA-SAT 9A","OBJECT_ID":"2010-069A","EPOCH":"2026-04-26T17:01:58.084320","MEAN_MOTION":1.00268489,"ECCENTRICITY":0.00040275,"INCLINATION":0.0611,"RA_OF_ASC_NODE":354.1089,"ARG_OF_PERICENTER":144.1294,"MEAN_ANOMALY":340.9833,"EPHEMERIS_TYPE":0,"CLASSIFICATION_TYPE":"U","NORAD_CAT_ID":37258,"ELEMENT_SET_NO":999,"REV_AT_EPOCH":4349,"BSTAR":0,"MEAN_MOTION_DOT":4.9e-7,"MEAN_MOTION_DDOT":0},{"OBJECT_NAME":"HISPASAT 30W-5","OBJECT_ID":"2010-070A","EPOCH":"2026-04-26T20:16:11.413920","MEAN_MOTION":1.00270772,"ECCENTRICITY":0.00045784,"INCLINATION":0.0648,"RA_OF_ASC_NODE":92.2919,"ARG_OF_PERICENTER":328.4043,"MEAN_ANOMALY":68.202,"EPHEMERIS_TYPE":0,"CLASSIFICATION_TYPE":"U","NORAD_CAT_ID":37264,"ELEMENT_SET_NO":999,"REV_AT_EPOCH":5267,"BSTAR":0,"MEAN_MOTION_DOT":-2.27e-6,"MEAN_MOTION_DDOT":0},{"OBJECT_NAME":"KOREASAT 6","OBJECT_ID":"2010-070B","EPOCH":"2026-04-26T20:58:51.560832","MEAN_MOTION":1.00269634,"ECCENTRICITY":0.00025104,"INCLINATION":0.0154,"RA_OF_ASC_NODE":113.3266,"ARG_OF_PERICENTER":291.9615,"MEAN_ANOMALY":284.1909,"EPHEMERIS_TYPE":0,"CLASSIFICATION_TYPE":"U","NORAD_CAT_ID":37265,"ELEMENT_SET_NO":999,"REV_AT_EPOCH":5625,"BSTAR":0,"MEAN_MOTION_DOT":0,"MEAN_MOTION_DDOT":0},{"OBJECT_NAME":"ELEKTRO-L 1 (GOMS 2)","OBJECT_ID":"2011-001A","EPOCH":"2026-04-26T10:56:42.763200","MEAN_MOTION":1.00159276,"ECCENTRICITY":0.0004004,"INCLINATION":9.572,"RA_OF_ASC_NODE":55.0235,"ARG_OF_PERICENTER":17.8262,"MEAN_ANOMALY":215.7319,"EPHEMERIS_TYPE":0,"CLASSIFICATION_TYPE":"U","NORAD_CAT_ID":37344,"ELEMENT_SET_NO":999,"REV_AT_EPOCH":5596,"BSTAR":0,"MEAN_MOTION_DOT":-1.79e-6,"MEAN_MOTION_DDOT":0},{"OBJECT_NAME":"FREGAT R/B","OBJECT_ID":"2011-001B","EPOCH":"2026-04-26T22:31:42.153312","MEAN_MOTION":1.02799825,"ECCENTRICITY":0.01515065,"INCLINATION":10.146,"RA_OF_ASC_NODE":42.8474,"ARG_OF_PERICENTER":69.6096,"MEAN_ANOMALY":107.8857,"EPHEMERIS_TYPE":0,"CLASSIFICATION_TYPE":"U","NORAD_CAT_ID":37345,"ELEMENT_SET_NO":999,"REV_AT_EPOCH":5987,"BSTAR":0,"MEAN_MOTION_DOT":-1.02e-6,"MEAN_MOTION_DDOT":0},{"OBJECT_NAME":"BEIDOU-2 IGSO-3","OBJECT_ID":"2011-013A","EPOCH":"2026-04-24T17:34:48.622080","MEAN_MOTION":1.00280536,"ECCENTRICITY":0.00337019,"INCLINATION":62.3393,"RA_OF_ASC_NODE":40.6572,"ARG_OF_PERICENTER":188.3614,"MEAN_ANOMALY":355.5484,"EPHEMERIS_TYPE":0,"CLASSIFICATION_TYPE":"U","NORAD_CAT_ID":37384,"ELEMENT_SET_NO":999,"REV_AT_EPOCH":5512,"BSTAR":0,"MEAN_MOTION_DOT":-2.01e-6,"MEAN_MOTION_DDOT":0},{"OBJECT_NAME":"INTELSAT 28 (IS-28)","OBJECT_ID":"2011-016A","EPOCH":"2026-04-26T20:15:41.461632","MEAN_MOTION":1.00270824,"ECCENTRICITY":0.00041882,"INCLINATION":1.6753,"RA_OF_ASC_NODE":83.2122,"ARG_OF_PERICENTER":317.0091,"MEAN_ANOMALY":86.83,"EPHEMERIS_TYPE":0,"CLASSIFICATION_TYPE":"U","NORAD_CAT_ID":37392,"ELEMENT_SET_NO":999,"REV_AT_EPOCH":5277,"BSTAR":0,"MEAN_MOTION_DOT":-2.35e-6,"MEAN_MOTION_DDOT":0},{"OBJECT_NAME":"YAHSAT 1A","OBJECT_ID":"2011-016B","EPOCH":"2026-04-26T22:22:21.584928","MEAN_MOTION":1.00270073,"ECCENTRICITY":0.00031812,"INCLINATION":0.0171,"RA_OF_ASC_NODE":226.1421,"ARG_OF_PERICENTER":183.5139,"MEAN_ANOMALY":193.3627,"EPHEMERIS_TYPE":0,"CLASSIFICATION_TYPE":"U","NORAD_CAT_ID":37393,"ELEMENT_SET_NO":999,"REV_AT_EPOCH":4189,"BSTAR":0,"MEAN_MOTION_DOT":0,"MEAN_MOTION_DDOT":0},{"OBJECT_NAME":"SBIRS GEO-1 (USA 230)","OBJECT_ID":"2011-019A","EPOCH":"2026-04-26T12:06:10.934208","MEAN_MOTION":1.00272367,"ECCENTRICITY":0.00022749,"INCLINATION":4.4238,"RA_OF_ASC_NODE":53.1203,"ARG_OF_PERICENTER":338.4498,"MEAN_ANOMALY":56.2872,"EPHEMERIS_TYPE":0,"CLASSIFICATION_TYPE":"U","NORAD_CAT_ID":37481,"ELEMENT_SET_NO":999,"REV_AT_EPOCH":5488,"BSTAR":0,"MEAN_MOTION_DOT":9.0e-7,"MEAN_MOTION_DDOT":0},{"OBJECT_NAME":"TELSTAR 14R","OBJECT_ID":"2011-021A","EPOCH":"2026-04-26T11:33:21.581856","MEAN_MOTION":1.00271318,"ECCENTRICITY":0.00022771,"INCLINATION":0.0197,"RA_OF_ASC_NODE":257.7355,"ARG_OF_PERICENTER":130.3447,"MEAN_ANOMALY":296.7265,"EPHEMERIS_TYPE":0,"CLASSIFICATION_TYPE":"U","NORAD_CAT_ID":37602,"ELEMENT_SET_NO":999,"REV_AT_EPOCH":5531,"BSTAR":0,"MEAN_MOTION_DOT":-2.92e-6,"MEAN_MOTION_DDOT":0},{"OBJECT_NAME":"GSAT-8","OBJECT_ID":"2011-022A","EPOCH":"2026-04-26T18:22:38.799840","MEAN_MOTION":1.00270458,"ECCENTRICITY":0.00047438,"INCLINATION":2.0001,"RA_OF_ASC_NODE":82.4175,"ARG_OF_PERICENTER":227.2999,"MEAN_ANOMALY":235.7789,"EPHEMERIS_TYPE":0,"CLASSIFICATION_TYPE":"U","NORAD_CAT_ID":37605,"ELEMENT_SET_NO":999,"REV_AT_EPOCH":5270,"BSTAR":0,"MEAN_MOTION_DOT":7.5e-7,"MEAN_MOTION_DDOT":0},{"OBJECT_NAME":"ST-2","OBJECT_ID":"2011-022B","EPOCH":"2026-04-26T22:42:21.663648","MEAN_MOTION":1.00271046,"ECCENTRICITY":0.0001896,"INCLINATION":0.032,"RA_OF_ASC_NODE":98.8802,"ARG_OF_PERICENTER":304.8458,"MEAN_ANOMALY":239.8137,"EPHEMERIS_TYPE":0,"CLASSIFICATION_TYPE":"U","NORAD_CAT_ID":37606,"ELEMENT_SET_NO":999,"REV_AT_EPOCH":5476,"BSTAR":0,"MEAN_MOTION_DOT":-2.22e-6,"MEAN_MOTION_DDOT":0},{"OBJECT_NAME":"ZHONGXING-10","OBJECT_ID":"2011-026A","EPOCH":"2026-04-26T22:31:50.674944","MEAN_MOTION":1.00272608,"ECCENTRICITY":0.00028033,"INCLINATION":0.916,"RA_OF_ASC_NODE":84.7117,"ARG_OF_PERICENTER":319.2509,"MEAN_ANOMALY":234.4731,"EPHEMERIS_TYPE":0,"CLASSIFICATION_TYPE":"U","NORAD_CAT_ID":37677,"ELEMENT_SET_NO":999,"REV_AT_EPOCH":5448,"BSTAR":0,"MEAN_MOTION_DOT":-1.99e-6,"MEAN_MOTION_DDOT":0},{"OBJECT_NAME":"SES-3","OBJECT_ID":"2011-035A","EPOCH":"2026-04-26T21:38:03.335136","MEAN_MOTION":1.00271685,"ECCENTRICITY":0.00031061,"INCLINATION":1.1958,"RA_OF_ASC_NODE":83.5829,"ARG_OF_PERICENTER":313.8586,"MEAN_ANOMALY":38.9729,"EPHEMERIS_TYPE":0,"CLASSIFICATION_TYPE":"U","NORAD_CAT_ID":37748,"ELEMENT_SET_NO":999,"REV_AT_EPOCH":5407,"BSTAR":0,"MEAN_MOTION_DOT":-1.12e-6,"MEAN_MOTION_DDOT":0},{"OBJECT_NAME":"KAZSAT-2","OBJECT_ID":"2011-035B","EPOCH":"2026-04-26T22:32:05.650656","MEAN_MOTION":1.00270499,"ECCENTRICITY":0.00014926,"INCLINATION":0.039,"RA_OF_ASC_NODE":279.8113,"ARG_OF_PERICENTER":181.8226,"MEAN_ANOMALY":177.8407,"EPHEMERIS_TYPE":0,"CLASSIFICATION_TYPE":"U","NORAD_CAT_ID":37749,"ELEMENT_SET_NO":999,"REV_AT_EPOCH":5288,"BSTAR":0,"MEAN_MOTION_DOT":-2.09e-6,"MEAN_MOTION_DDOT":0},{"OBJECT_NAME":"BREEZE-M R/B","OBJECT_ID":"2011-035D","EPOCH":"2026-04-26T06:19:25.895424","MEAN_MOTION":1.12713902,"ECCENTRICITY":0.07719706,"INCLINATION":9.3291,"RA_OF_ASC_NODE":34.591,"ARG_OF_PERICENTER":63.7913,"MEAN_ANOMALY":119.1753,"EPHEMERIS_TYPE":0,"CLASSIFICATION_TYPE":"U","NORAD_CAT_ID":37751,"ELEMENT_SET_NO":999,"REV_AT_EPOCH":6079,"BSTAR":0,"MEAN_MOTION_DOT":-1.87e-6,"MEAN_MOTION_DDOT":0}]
